ONEWEB-0258             
1 48976U 21060K   26134.28568827  .00000084  00000+0  18707-3 0  9992
2 48976  87.9104 235.5138 0001895 101.5046 258.6298 13.16596256235130
ONEWEB-0259             
1 48977U 21060L   26134.27935657  .00000081  00000+0  17888-3 0  9997
2 48977  87.9101 235.5148 0001788 101.2128 258.9204 13.16592842235168
ONEWEB-0260             
1 48978U 21060M   26134.27065335  .00000088  00000+0  19655-3 0  9996
2 48978  87.9094 235.5198 0002391  98.4102 261.7300 13.16595817235147
ONEWEB-0261             
1 48979U 21060N   26134.31657259  .00000005  00000+0 -19992-4 0  9999
2 48979  87.9096 235.5096 0001954  91.0292 269.1063 13.16593895235209
ONEWEB-0262             
1 48980U 21060P   26134.29678539  .00000046  00000+0  87556-4 0  9997
2 48980  87.9105 235.4987 0001677 101.5815 258.5504 13.16595752235161
ONEWEB-0263             
1 48981U 21060Q   26134.25243899  .00000021  00000+0  21612-4 0  9995
2 48981  87.9102 235.5189 0001814  91.5409 268.5930 13.16592358235123
ONEWEB-0264             
1 48982U 21060R   26134.28964882  .00000030  00000+0  44247-4 0  9990
2 48982  87.9104 235.5149 0002079  95.3628 264.7741 13.16592622235134
ONEWEB-0266             
1 48984U 21060T   26134.31102558 -.00000014  00000+0 -70657-4 0  9998
2 48984  87.9101 235.5007 0001949 103.7057 256.4291 13.16595455235125
ONEWEB-0267             
1 48985U 21060U   26134.32209950 -.00000290  00000+0 -79132-3 0  9996
2 48985  87.9103 235.4948 0001982  94.9172 265.2185 13.16593996235136
ONEWEB-0268             
1 48986U 21060V   26134.29045627  .00000042  00000+0  76375-4 0  9992
2 48986  87.9106 235.5109 0002131 100.3044 259.8328 13.16594249235395
ONEWEB-0269             
1 48987U 21060W   26134.27145472  .00000073  00000+0  15642-3 0  9993
2 48987  87.9093 235.5212 0002170 104.1400 255.9972 13.16595820235160
ONEWEB-0270             
1 48988U 21060X   26134.28886985  .00000118  00000+0  27622-3 0  9997
2 48988  87.9106 235.5130 0001641  93.5423 266.5895 13.16595696235201
ONEWEB-0271             
1 48989U 21060Y   26134.27620491  .00000085  00000+0  18760-3 0  9991
2 48989  87.9102 235.5062 0001856  93.9877 266.1467 13.16595635235201
ONEWEB-0272             
1 48990U 21060Z   26134.29836959 -.00000026  00000+0 -10081-3 0  9998
2 48990  87.9101 235.5125 0002216  94.5813 265.5571 13.16594694235157
ONEWEB-0273             
1 48991U 21060AA  26134.32053786 -.00000011  00000+0 -63393-4 0  9991
2 48991  87.9102 235.5073 0001865  97.9527 262.1816 13.16595012235137
ONEWEB-0274             
1 48992U 21060AB  26134.26986381  .00000097  00000+0  22053-3 0  9990
2 48992  87.9094 235.5236 0002279  97.0036 263.1354 13.16595433235163
