[{"OBJECT_NAME":"ONEWEB-0258","OBJECT_ID":"2021-060K","EPOCH":"2026-05-14T06:51:23.466528","MEAN_MOTION":13.16596256,"ECCENTRICITY":0.0001895,"INCLINATION":87.9104,"RA_OF_ASC_NODE":235.5138,"ARG_OF_PERICENTER":101.5046,"MEAN_ANOMALY":258.6298,"EPHEMERIS_TYPE":0,"CLASSIFICATION_TYPE":"U","NORAD_CAT_ID":48976,"ELEMENT_SET_NO":999,"REV_AT_EPOCH":23513,"BSTAR":0.00018706999999999998,"MEAN_MOTION_DOT":8.4e-07,"MEAN_MOTION_DDOT":0.0},{"OBJECT_NAME":"ONEWEB-0259","OBJECT_ID":"2021-060L","EPOCH":"2026-05-14T06:42:16.407648","MEAN_MOTION":13.16592842,"ECCENTRICITY":0.0001788,"INCLINATION":87.9101,"RA_OF_ASC_NODE":235.5148,"ARG_OF_PERICENTER":101.2128,"MEAN_ANOMALY":258.9204,"EPHEMERIS_TYPE":0,"CLASSIFICATION_TYPE":"U","NORAD_CAT_ID":48977,"ELEMENT_SET_NO":999,"REV_AT_EPOCH":23516,"BSTAR":0.00017888000000000002,"MEAN_MOTION_DOT":8.1e-07,"MEAN_MOTION_DDOT":0.0},{"OBJECT_NAME":"ONEWEB-0260","OBJECT_ID":"2021-060M","EPOCH":"2026-05-14T06:29:44.449440","MEAN_MOTION":13.16595817,"ECCENTRICITY":0.0002391,"INCLINATION":87.9094,"RA_OF_ASC_NODE":235.5198,"ARG_OF_PERICENTER":98.4102,"MEAN_ANOMALY":261.73,"EPHEMERIS_TYPE":0,"CLASSIFICATION_TYPE":"U","NORAD_CAT_ID":48978,"ELEMENT_SET_NO":999,"REV_AT_EPOCH":23514,"BSTAR":0.00019655,"MEAN_MOTION_DOT":8.8e-07,"MEAN_MOTION_DDOT":0.0},{"OBJECT_NAME":"ONEWEB-0261","OBJECT_ID":"2021-060N","EPOCH":"2026-05-14T07:35:51.871776","MEAN_MOTION":13.16593895,"ECCENTRICITY":0.0001954,"INCLINATION":87.9096,"RA_OF_ASC_NODE":235.5096,"ARG_OF_PERICENTER":91.0292,"MEAN_ANOMALY":269.1063,"EPHEMERIS_TYPE":0,"CLASSIFICATION_TYPE":"U","NORAD_CAT_ID":48979,"ELEMENT_SET_NO":999,"REV_AT_EPOCH":23520,"BSTAR":-1.9992e-05,"MEAN_MOTION_DOT":5e-08,"MEAN_MOTION_DDOT":0.0},{"OBJECT_NAME":"ONEWEB-0262","OBJECT_ID":"2021-060P","EPOCH":"2026-05-14T07:07:22.257696","MEAN_MOTION":13.16595752,"ECCENTRICITY":0.0001677,"INCLINATION":87.9105,"RA_OF_ASC_NODE":235.4987,"ARG_OF_PERICENTER":101.5815,"MEAN_ANOMALY":258.5504,"EPHEMERIS_TYPE":0,"CLASSIFICATION_TYPE":"U","NORAD_CAT_ID":48980,"ELEMENT_SET_NO":999,"REV_AT_EPOCH":23516,"BSTAR":8.7556e-05,"MEAN_MOTION_DOT":4.6e-07,"MEAN_MOTION_DDOT":0.0},{"OBJECT_NAME":"ONEWEB-0263","OBJECT_ID":"2021-060Q","EPOCH":"2026-05-14T06:03:30.728736","MEAN_MOTION":13.16592358,"ECCENTRICITY":0.0001814,"INCLINATION":87.9102,"RA_OF_ASC_NODE":235.5189,"ARG_OF_PERICENTER":91.5409,"MEAN_ANOMALY":268.593,"EPHEMERIS_TYPE":0,"CLASSIFICATION_TYPE":"U","NORAD_CAT_ID":48981,"ELEMENT_SET_NO":999,"REV_AT_EPOCH":23512,"BSTAR":2.1612000000000002e-05,"MEAN_MOTION_DOT":2.1e-07,"MEAN_MOTION_DDOT":0.0},{"OBJECT_NAME":"ONEWEB-0264","OBJECT_ID":"2021-060R","EPOCH":"2026-05-14T06:57:05.658048","MEAN_MOTION":13.16592622,"ECCENTRICITY":0.0002079,"INCLINATION":87.9104,"RA_OF_ASC_NODE":235.5149,"ARG_OF_PERICENTER":95.3628,"MEAN_ANOMALY":264.7741,"EPHEMERIS_TYPE":0,"CLASSIFICATION_TYPE":"U","NORAD_CAT_ID":48982,"ELEMENT_SET_NO":999,"REV_AT_EPOCH":23513,"BSTAR":4.4247e-05,"MEAN_MOTION_DOT":3e-07,"MEAN_MOTION_DDOT":0.0},{"OBJECT_NAME":"ONEWEB-0266","OBJECT_ID":"2021-060T","EPOCH":"2026-05-14T07:27:52.610112","MEAN_MOTION":13.16595455,"ECCENTRICITY":0.0001949,"INCLINATION":87.9101,"RA_OF_ASC_NODE":235.5007,"ARG_OF_PERICENTER":103.7057,"MEAN_ANOMALY":256.4291,"EPHEMERIS_TYPE":0,"CLASSIFICATION_TYPE":"U","NORAD_CAT_ID":48984,"ELEMENT_SET_NO":999,"REV_AT_EPOCH":23512,"BSTAR":-7.065700000000001e-05,"MEAN_MOTION_DOT":-1.4e-07,"MEAN_MOTION_DDOT":0.0},{"OBJECT_NAME":"ONEWEB-0267","OBJECT_ID":"2021-060U","EPOCH":"2026-05-14T07:43:49.396800","MEAN_MOTION":13.16593996,"ECCENTRICITY":0.0001982,"INCLINATION":87.9103,"RA_OF_ASC_NODE":235.4948,"ARG_OF_PERICENTER":94.9172,"MEAN_ANOMALY":265.2185,"EPHEMERIS_TYPE":0,"CLASSIFICATION_TYPE":"U","NORAD_CAT_ID":48985,"ELEMENT_SET_NO":999,"REV_AT_EPOCH":23513,"BSTAR":-0.0007913200000000001,"MEAN_MOTION_DOT":-2.9e-06,"MEAN_MOTION_DDOT":0.0},{"OBJECT_NAME":"ONEWEB-0268","OBJECT_ID":"2021-060V","EPOCH":"2026-05-14T06:58:15.421728","MEAN_MOTION":13.16594249,"ECCENTRICITY":0.0002131,"INCLINATION":87.9106,"RA_OF_ASC_NODE":235.5109,"ARG_OF_PERICENTER":100.3044,"MEAN_ANOMALY":259.8328,"EPHEMERIS_TYPE":0,"CLASSIFICATION_TYPE":"U","NORAD_CAT_ID":48986,"ELEMENT_SET_NO":999,"REV_AT_EPOCH":23539,"BSTAR":7.637500000000001e-05,"MEAN_MOTION_DOT":4.2e-07,"MEAN_MOTION_DDOT":0.0},{"OBJECT_NAME":"ONEWEB-0269","OBJECT_ID":"2021-060W","EPOCH":"2026-05-14T06:30:53.687808","MEAN_MOTION":13.1659582,"ECCENTRICITY":0.000217,"INCLINATION":87.9093,"RA_OF_ASC_NODE":235.5212,"ARG_OF_PERICENTER":104.14,"MEAN_ANOMALY":255.9972,"EPHEMERIS_TYPE":0,"CLASSIFICATION_TYPE":"U","NORAD_CAT_ID":48987,"ELEMENT_SET_NO":999,"REV_AT_EPOCH":23516,"BSTAR":0.00015642,"MEAN_MOTION_DOT":7.3e-07,"MEAN_MOTION_DDOT":0.0},{"OBJECT_NAME":"ONEWEB-0270","OBJECT_ID":"2021-060X","EPOCH":"2026-05-14T06:55:58.355040","MEAN_MOTION":13.16595696,"ECCENTRICITY":0.0001641,"INCLINATION":87.9106,"RA_OF_ASC_NODE":235.513,"ARG_OF_PERICENTER":93.5423,"MEAN_ANOMALY":266.5895,"EPHEMERIS_TYPE":0,"CLASSIFICATION_TYPE":"U","NORAD_CAT_ID":48988,"ELEMENT_SET_NO":999,"REV_AT_EPOCH":23520,"BSTAR":0.00027622000000000004,"MEAN_MOTION_DOT":1.18e-06,"MEAN_MOTION_DDOT":0.0},{"OBJECT_NAME":"ONEWEB-0271","OBJECT_ID":"2021-060Y","EPOCH":"2026-05-14T06:37:44.104224","MEAN_MOTION":13.16595635,"ECCENTRICITY":0.0001856,"INCLINATION":87.9102,"RA_OF_ASC_NODE":235.5062,"ARG_OF_PERICENTER":93.9877,"MEAN_ANOMALY":266.1467,"EPHEMERIS_TYPE":0,"CLASSIFICATION_TYPE":"U","NORAD_CAT_ID":48989,"ELEMENT_SET_NO":999,"REV_AT_EPOCH":23520,"BSTAR":0.0001876,"MEAN_MOTION_DOT":8.5e-07,"MEAN_MOTION_DDOT":0.0},{"OBJECT_NAME":"ONEWEB-0272","OBJECT_ID":"2021-060Z","EPOCH":"2026-05-14T07:09:39.132576","MEAN_MOTION":13.16594694,"ECCENTRICITY":0.0002216,"INCLINATION":87.9101,"RA_OF_ASC_NODE":235.5125,"ARG_OF_PERICENTER":94.5813,"MEAN_ANOMALY":265.5571,"EPHEMERIS_TYPE":0,"CLASSIFICATION_TYPE":"U","NORAD_CAT_ID":48990,"ELEMENT_SET_NO":999,"REV_AT_EPOCH":23515,"BSTAR":-0.00010081,"MEAN_MOTION_DOT":-2.6e-07,"MEAN_MOTION_DDOT":0.0},{"OBJECT_NAME":"ONEWEB-0273","OBJECT_ID":"2021-060AA","EPOCH":"2026-05-14T07:41:34.471104","MEAN_MOTION":13.16595012,"ECCENTRICITY":0.0001865,"INCLINATION":87.9102,"RA_OF_ASC_NODE":235.5073,"ARG_OF_PERICENTER":97.9527,"MEAN_ANOMALY":262.1816,"EPHEMERIS_TYPE":0,"CLASSIFICATION_TYPE":"U","NORAD_CAT_ID":48991,"ELEMENT_SET_NO":999,"REV_AT_EPOCH":23513,"BSTAR":-6.339300000000001e-05,"MEAN_MOTION_DOT":-1.1e-07,"MEAN_MOTION_DDOT":0.0},{"OBJECT_NAME":"ONEWEB-0274","OBJECT_ID":"2021-060AB","EPOCH":"2026-05-14T06:28:36.233184","MEAN_MOTION":13.16595433,"ECCENTRICITY":0.0002279,"INCLINATION":87.9094,"RA_OF_ASC_NODE":235.5236,"ARG_OF_PERICENTER":97.0036,"MEAN_ANOMALY":263.1354,"EPHEMERIS_TYPE":0,"CLASSIFICATION_TYPE":"U","NORAD_CAT_ID":48992,"ELEMENT_SET_NO":999,"REV_AT_EPOCH":23516,"BSTAR":0.00022053,"MEAN_MOTION_DOT":9.7e-07,"MEAN_MOTION_DDOT":0.0}]